     2.100          NAVIGATION                              RINEX VERSION / TYPE
fic2rin                                 10/04/2013 00:22:02 PGM / RUN BY / DATE
                                                            END OF HEADER
25 13 10  3 18  0  0.0  .153813511133D-03  .386535248253D-11  .000000000000D+00
     .770000000000D+02  .600937500000D+02  .423874798944D-08  .167065529921D+00
     .310875475407D-05  .272930378560D-02  .101700425148D-04  .515371580124D+04
     .410400000000D+06  .279396772385D-07  .460068502946D+00  .000000000000D+00
     .974387011450D+00  .194375000000D+03  .726856253166D+00 -.792997317236D-08
     .545022702383D-09  .100000000000D+01  .176000000000D+04  .000000000000D+00
     .340000000000D+01  .000000000000D+00  .558793544769D-08  .770000000000D+02
     .403206000000D+06  .400000000000D+01
26 13 10  3 18  0  0.0  .220541842282D-03  .188720150618D-10  .000000000000D+00
     .183000000000D+03 -.375000000000D+02  .446840041253D-08  .302565220016D+01
    -.189058482647D-05  .210812002188D-01  .269711017609D-05  .515367890549D+04
     .410400000000D+06  .188127160072D-06 -.153393055420D+01 -.134110450745D-06
     .977162534239D+00  .333812500000D+03  .125206375540D+01 -.795961726429D-08
    -.223937899341D-09  .100000000000D+01  .176000000000D+04  .000000000000D+00
     .340000000000D+01  .000000000000D+00 -.558793544769D-08  .183000000000D+03
     .403206000000D+06  .400000000000D+01
27 13 10  3 18  0  0.0 -.437730923295D-04 -.432009983342D-11  .000000000000D+00
     .410000000000D+02 -.141250000000D+02  .507878298027D-08 -.278822891112D+01
    -.841915607452D-06  .452067004517D-03  .330246984959D-05  .515365998077D+04
     .410400000000D+06  .372529029846D-07  .150943519202D+01 -.689178705215D-07
     .960679432474D+00  .316500000000D+03  .901777173336D+00 -.853285542768D-08
    -.482162941165D-10  .100000000000D+01  .176000000000D+04  .000000000000D+00
     .240000000000D+01  .000000000000D+00  .186264514923D-08  .410000000000D+02
     .403206000000D+06  .400000000000D+01
29 13 10  3 18  0  0.0  .475796870887D-03  .318323145621D-11  .000000000000D+00
     .123000000000D+03 -.167500000000D+02  .503913847177D-08  .854578334904D+00
    -.819563865662D-06  .143512373324D-02  .327453017235D-05  .515356287575D+04
     .410400000000D+06  .111758708954D-07  .156237183947D+01 -.260770320892D-07
     .966730452249D+00  .322250000000D+03 -.990921496749D+00 -.848321050263D-08
    -.500020827875D-10  .100000000000D+01  .176000000000D+04  .000000000000D+00
     .340000000000D+01  .000000000000D+00 -.931322574615D-08  .123000000000D+03
     .403206000000D+06  .400000000000D+01
30 13 10  3 18  0  0.0 -.328156165779D-04 -.519548848388D-10  .000000000000D+00
     .126000000000D+03  .268750000000D+01  .561309095063D-08  .395991791379D+00
     .577419996262D-07  .832610065117D-02  .285729765892D-05  .515360613251D+04
     .410400000000D+06  .298023223877D-07  .142587730364D+01 -.106170773506D-06
     .944391963819D+00  .318250000000D+03 -.751735464571D+00 -.889608484336D-08
     .867893294096D-10  .100000000000D+01  .176000000000D+04  .000000000000D+00
     .240000000000D+01  .630000000000D+02 -.232830643654D-08  .126000000000D+03
     .403206000000D+06  .400000000000D+01
31 13 10  3 18  0  0.0  .327164772898D-03  .795807864051D-12  .000000000000D+00
     .170000000000D+02 -.732500000000D+02  .377337146178D-08  .150143483244D+01
    -.370107591152D-05  .796403584536D-02  .109747052193D-04  .515368551826D+04
     .410400000000D+06  .154599547386D-06 -.554595273554D+00  .707805156708D-07
     .979982417093D+00  .175718750000D+03 -.732144544028D+00 -.764567561594D-08
    -.303226916332D-09  .100000000000D+01  .176000000000D+04  .000000000000D+00
     .240000000000D+01  .000000000000D+00 -.130385160446D-07  .170000000000D+02
     .403206000000D+06  .400000000000D+01
32 13 10  3 18  0  0.0 -.543723348528D-03  .329691829393D-11  .000000000000D+00
     .810000000000D+02  .102375000000D+03  .476412701644D-08  .196327590202D+01
     .537931919098D-05  .116263902746D-01  .835955142975D-05  .515358880424D+04
     .410400000000D+06  .335276126862D-07 -.259041390086D+01  .212341547012D-06
     .948983986135D+00  .209718750000D+03 -.281420728749D+00 -.821962809479D-08
     .216080429189D-09  .100000000000D+01  .176000000000D+04  .000000000000D+00
     .240000000000D+01  .000000000000D+00 -.279396772385D-08  .810000000000D+02
     .403206000000D+06  .400000000000D+01
26 13 10  3 17 59 44.0  .220538116992D-03  .187583282241D-10  .000000000000D+00
     .540000000000D+02 -.375000000000D+02  .446840041253D-08  .302331839817D+01
    -.189058482647D-05  .210811999859D-01  .269711017609D-05  .515367890358D+04
     .410384000000D+06  .188127160072D-06 -.153393041669D+01 -.134110450745D-06
     .977162538628D+00  .333812500000D+03  .125206384318D+01 -.795961726429D-08
    -.223937899341D-09  .100000000000D+01  .176000000000D+04  .000000000000D+00
     .240000000000D+01  .000000000000D+00 -.558793544769D-08  .540000000000D+02
     .403236000000D+06  .400000000000D+01
29 13 10  3 17 59 44.0  .475799199194D-03  .318323145621D-11  .000000000000D+00
     .240000000000D+02 -.167500000000D+02  .503913847177D-08  .852239106951D+00
    -.819563865662D-06  .143512652721D-02  .327453017235D-05  .515356288147D+04
     .410384000000D+06  .111758708954D-07  .156237200478D+01 -.260770320892D-07
     .966730444935D+00  .322250000000D+03 -.990916290224D+00 -.848321050263D-08
    -.500020827875D-10  .100000000000D+01  .176000000000D+04  .000000000000D+00
     .240000000000D+01  .000000000000D+00 -.931322574615D-08  .240000000000D+02
     .405486000000D+06  .400000000000D+01
13 13 10  3 17 59 44.0  .737453810871D-04 -.375166564481D-11  .000000000000D+00
     .150000000000D+02 -.367500000000D+02  .447590072495D-08 -.250807243618D+01
    -.189244747162D-05  .502027641051D-02  .349432229996D-05  .515368841362D+04
     .410384000000D+06 -.372529029846D-08 -.152605750361D+01  .819563865662D-07
     .979727743536D+00  .322593750000D+03  .220242644527D+01 -.819034116058D-08
    -.267511142913D-09  .100000000000D+01  .176000000000D+04  .000000000000D+00
     .240000000000D+01  .000000000000D+00 -.107102096081D-07  .150000000000D+02
     .405546000000D+06  .400000000000D+01
13 13 10  3 19 59 44.0  .737179070711D-04 -.375166564481D-11  .000000000000D+00
     .160000000000D+02 -.317500000000D+02  .451983112625D-08 -.145768034832D+01
    -.167824327946D-05  .501991063356D-02  .315159559250D-05  .515369060707D+04
     .417584000000D+06 -.113621354103D-06 -.152611722724D+01 -.316649675369D-07
     .979725247798D+00  .329406250000D+03  .220220573775D+01 -.833963309348D-08
    -.233581158164D-09  .100000000000D+01  .176000000000D+04  .000000000000D+00
     .240000000000D+01  .000000000000D+00 -.107102096081D-07  .160000000000D+02
     .410406000000D+06  .400000000000D+01
29 13 10  3 19 59 44.0  .475821550936D-03  .318323145621D-11  .000000000000D+00
     .250000000000D+02 -.207187500000D+02  .499092217766D-08  .190307028528D+01
    -.114552676678D-05  .143494212534D-02  .358559191227D-05  .515356127167D+04
     .417584000000D+06  .372529029846D-07  .156231134927D+01  .428408384323D-07
     .966730294254D+00  .317687500000D+03 -.991494801178D+00 -.841570769086D-08
    -.735744932444D-10  .100000000000D+01  .176000000000D+04  .000000000000D+00
     .240000000000D+01  .000000000000D+00 -.931322574615D-08  .250000000000D+02
     .410406000000D+06  .400000000000D+01
 1 13 10  3 20  0  0.0  .812974758446D-04  .386535248253D-11  .000000000000D+00
     .240000000000D+02 -.506875000000D+02  .441589822560D-08  .305159063447D+01
    -.261701643467D-05  .240457942709D-02  .111758708954D-04  .515369721985D+04
     .417600000000D+06 -.558793544769D-07  .256277251433D+01 -.558793544769D-08
     .960672192493D+00  .165093750000D+03  .395144390230D+00 -.791640117846D-08
    -.369658254893D-09  .100000000000D+01  .176000000000D+04  .000000000000D+00
     .240000000000D+01  .000000000000D+00  .838190317154D-08  .240000000000D+02
     .410406000000D+06  .400000000000D+01
 2 13 10  3 20  0  0.0  .454232562333D-03  .170530256582D-11  .000000000000D+00
     .110000000000D+02 -.580312500000D+02  .486805991709D-08 -.240083723184D+01
    -.305473804474D-05  .126209744485D-01  .117551535368D-04  .515374510765D+04
     .417600000000D+06  .158324837685D-06  .253832738730D+01 -.245869159698D-06
     .939161973169D+00  .137156250000D+03 -.255381192020D+01 -.811176645906D-08
    -.348585948575D-09  .100000000000D+01  .176000000000D+04  .000000000000D+00
     .240000000000D+01  .000000000000D+00 -.172294676304D-07  .110000000000D+02
     .410406000000D+06  .400000000000D+01
 3 13 10  3 20  0  0.0  .267856754363D-03  .511590769747D-11  .000000000000D+00
     .750000000000D+02  .105625000000D+02  .552022993973D-08 -.224179205667D+01
     .543892383575D-06  .167311237892D-01  .200234353542D-05  .515372494507D+04
     .417600000000D+06  .225380063057D-06  .136634615357D+01  .540167093277D-07
     .935378423752D+00  .320031250000D+03  .133980574164D+01 -.854964184119D-08
     .269296931584D-09  .100000000000D+01  .176000000000D+04  .000000000000D+00
     .240000000000D+01  .000000000000D+00 -.465661287308D-08  .750000000000D+02
     .410406000000D+06  .400000000000D+01
 4 13 10  3 20  0  0.0  .156415626407D-05  .454747350886D-12  .000000000000D+00
     .410000000000D+02 -.496250000000D+02  .507771150707D-08  .874417019642D+00
    -.237300992012D-05  .106126443716D-01  .113788992167D-04  .515361841583D+04
     .417600000000D+06 -.949949026108D-07  .255462174776D+01  .875443220139D-07
     .938208035011D+00  .152562500000D+03  .103012799093D+01 -.841677916406D-08
    -.502878089748D-09  .100000000000D+01  .176000000000D+04  .000000000000D+00
     .240000000000D+01  .000000000000D+00 -.605359673500D-08  .410000000000D+02
     .410406000000D+06  .400000000000D+01
